ID	Name	LongName	Description	AddressLine1	AddressLine2	State	Zipcode	Country	Longitude	Latitude
10001	ASGC	NULL	NULL	NULL	NULL	Taipei	00000	Taiwan	121.333450	25.052787
10002	Florida State HEP	NULL	NULL	NULL	NULL	FL	32306	United States	-84.29855	30.442499
10003	ORNL NSTG	NULL	NULL	NULL	NULL	TN	37831	United States	-84.195796	36.105971
10004	Purdue Physics	NULL	NULL	NULL	NULL	IN	47907	United States	-86.916215	40.424923
10005	T2_BR_UERJ			São Francisco Xavier 524 Third Floor Block A Room 3029A	NULL	Rio de Janeiro	20550-013	Brazil	-43.056793	-22.592458
10006	UCLA CMS Tier3	NULL	NULL	NULL	NULL	CA	90095	United States	-118.298662	33.786594
10007	UCR HEP	NULL	NULL	NULL	NULL	CA	92521	United States	-117.325385	33.974645
10008	UC Teraport	NULL	NULL	NULL	NULL	IL	60637	United States	-87.60544	41.779384
10009	UNM HPC	NULL	NULL	NULL	NULL	NM	87131	United States	-106.672872	35.044339
10010	UVA CS	NULL	NULL	NULL	NULL	VA	22904	United States	-78.485066	38.040101
10011	Vanderbilt ACCRE	NULL	NULL	NULL	NULL	TN	37240	United States	-86.796477	36.141621
10012	cinvestav	Centro de Investigacion y de Estudios Avanzados del IPN	The Center for Research and Avanced Studies of I.P.N. (CINVESTAV) is a public organization dedicated to promote, develop, and teach research in science. The Institution counts 37 Departments, separated into 4 research areas; Exact Sciences, Biology & Medicine, Technology & \nEngineering, and Social Sciences & Humanities. CINVESTAV have 9 Centers across Mexico which offer a variety of Academic programs and research areas.	Av. IPN 2508	Col. San Pedro Zacatenco	Distrito Federal	07360	Mexico	-99.129424	19.50798
10013	ISU HEP	NULL	NULL	NULL	NULL	IA	50011	United States	-93.467174	42.034759
10014	LONI_LSU	Louisiana Optical Network Initiative	LONI resources located at Louisiana State University	NULL	NULL	LA	70803	United States	-91.17918	30.413299
10015	LaTech		NULL	NULL	NULL	LA	71272	United States	-92.645398	32.525499
10016	OU DOSAR	NULL	NULL	NULL	NULL	OK	73019	United States	-97.447084	35.207171
10017	SPRACE	SAO PAULO RESEARCH AND ANALYSIS CENTER	NULL	R. Dr. Bento Teobaldo Ferraz 271 - Bl. II - Barra Funda 01140-070 - São Paulo	NULL	Sao Paulo	01140-070	Brazil	-46.665469	-23.52433
10018	MSU OSG	MSU OSG	D0 and Atlas Tier3 of the High Energy Physics Group at Michigan State University			MI	48824	United States	-84.79248	42.603642
10019	Clemson IT	NULL	NULL	NULL	NULL	SC	29634	United States	-82.710126	34.847372
10020	FermiGrid	NULL	NULL	NULL	NULL	IL	60510	United States	-88.242767	41.85143
10021	McGill HEP	NULL	NULL	NULL	NULL		H3A 2T5	Canada	-73.38	45.32
10022	CHEPREO	NULL	NULL	NULL	NULL	FL	33174	United States	-80.378723	25.846865
10023	UF HPC	NULL	NULL	NULL	NULL	FL	32611	United States	-82.353861	29.681312
10024	UF IHEPA	NULL	NULL	NULL	NULL	FL	32611	United States	-82.4	29.681312
10025	Lehigh Coral	NULL	NULL	NULL	NULL	PA	18015	United States	-75.37542	40.601261
10026	GLOW	NULL	NULL	NULL	NULL	WI	53706	United States	-89.384122	43.074656
10027	GPN Kansas	NULL	NULL	NULL	NULL	KS	66045	United States	-95.275623	38.952526
10028	NYSGRID Cornell	NULL	NULL	Rhodes Hall	NULL	NY	14853	United States	-76.49685	42.449454
10029	GRASE Niagra	NULL	NULL	NULL	NULL	NY	14109	United States	-78.830681	43.32684
10030	GRASE Buffalo	NULL	NULL	NULL	NULL	NY	14260	United States	-79.035645	42.619813
10031	NYSGRID Buffalo	NULL	NULL	NULL	NULL	NY	14260	United States	-78.9	42.768413
10032	GROW	NULL	NULL	NULL	NULL	IA	52242	United States	-98.701172	37.160317
10033	GROW-UNI	NULL	NULL	NULL	NULL	IA	50613	United States	-92.45609	42.527184
10034	MIT LIGO	NULL	NULL	NULL	NULL	MA	02139	United States	-71.10431	42.364347
10035	PSU LIGO	NULL	NULL	NULL	NULL	PA	16802	United States	-77.86281	40.806956
10036	UW Milwaukee Physics	NULL	NULL	NULL	NULL	WI	53201	United States	-87.958409	43.011264
10037	NERSC	NULL	NULL	NULL	NULL	CA	94720	United States	-122.253582	37.866825
10039	SLAC	NULL	This used to be blank.	NULL	NULL	CA	94305	United States	-122.164879	37.424571
10040	STAR Brookhaven	NULL	NULL	NULL	NULL	NY	11973	United States	-72.878863	40.8688
10041	STAR Birmingham	NULL	NULL	NULL	NULL			United Kingdom	1.53	52.29
10042	UIC Physics	NULL	NULL	NULL	NULL	IL	60607	United States	-87.65114	41.875882
10043	STAR WSU	NULL	NULL	NULL	NULL	MI	48208	United States	-83.08994	42.348937
10044	TIGRE TTU	NULL	NULL	NULL	NULL	TX	79409	United States	-101.821292	33.610018
10045	Boston University ATLAS Tier2	NULL	NULL	NULL	NULL	MA	02118	United States	-71.07276	42.338724
10046	Brookhaven ATLAS Tier1	NULL	NULL	NULL	NULL	NY	11973	United States	-72.878366	40.868386
10047	IU UITS	NULL	NULL	NULL	NULL	IN	47408	United States	-86.501091	39.173557
10048	MWT2 ATLAS IU	NULL	NULL	NULL	NULL	IN	47405	United States	-86.52471	39.16454
10049	OU ATLAS	NULL	NULL	NULL	NULL	OK	73019	United States	-97.447073	35.207175
10050	OU HEP	NULL	NULL	NULL	NULL	OK	73019	United States	-97.447051	35.207175
10051	SWT2 ATLAS OU	NULL	NULL	NULL	NULL	OK	73019	United States	-97.7	35.208566
10052	SMU Physics		NULL	NULL	NULL	TX	75205	United States	-96.79524	32.836094
10053	MWT2 ATLAS UC	NULL	NULL	NULL	NULL	IL	60637	United States	-87.7	41.779384
10054	AGLT2	Atlas Great Lakes Tier2	University of Michigan/Michigan State University combined site for USATLAS computing.	450 Church St	Physics Dept, University of Michigan	MI	48109-1040	United States	-83.71831	42.291637
10055	SWT2 ATLAS UTA	NULL	NULL	NULL	NULL	TX	76019	United States	-97.291484	32.771419
10056	UTA ATLAS	NULL	NULL	NULL	NULL	TX	76019	United States	-97.4	32.771419
10057	GLOW ATLAS	NULL	NULL	NULL	NULL	WI	53706	United States	-89.5	43.074296
10058	FNAL USCMS Tier1	NULL	NULL	NULL	NULL	IL	60510	United States	-88.255057	41.841368
10059	MIT CMS	NULL	NULL	NULL	NULL	MA	02139	United States	-71.2	42.364347
10060	Purdue CMS	NULL	NULL	NULL	NULL	IN	47907	United States	-86.910768	40.423004
10061	UCSD CMS Tier2	NULL	NULL	NULL	NULL	CA	92093	United States	-116.846046	33.016928
10062	UF CMS Tier2	NULL	NULL	NULL	NULL	FL	32611	United States	-82.5	29.681312
10063	GLOW CMS	NULL	NULL	NULL	NULL	WI	53706	United States	-89.6	43.074296
10064	Caltech CMS Tier2		NULL	1200 E. California Blvd	NULL	CA	91125	United States	-118.124281	34.137987
10065	Nebraska-Lincoln	NULL	The Holland Computing Center at the University of Nebraska-Lincoln	118 Schorr Center	NULL	NE	68588	United States	-96.705651	40.819818
10066	GLOW EDU	NULL	NULL	NULL	NULL	WI	53706	United States	-89.40774	43.074296
10067	Florida Tech	Florida Tech Physics and Space Sciences	HEP computing and US CMS at CERN	150 W. University Blvd	PSS	FL	32901	United States	-80.61987	28.077494
10069	LBNL	LBNL	NULL	NULL	NULL	CA	94720	United States	-122.3	37.866825
10070	Caltech LIGO	NULL	NULL	NULL	NULL	CA	91125	United States	-118.31	33.786594
10071	NWICG_NDCMS	NULL	NULL	NULL	NULL	IN	46556	United States	-86.24498	41.701415
10072	Purdue NWICG	NULL	NULL	NULL	NULL	IN	47907	United States	-87.1	40.424923
10073	Harvard SBGRID	NULL	NULL	75 Shattuck St	NULL	MA	02115	United States	-71.104674	42.336691
10074	UARK ACE	NULL	NULL	NULL	NULL	AR	72701	United States	-94.13376	36.040467
10075	OSG_GP_CE01	NULL	NULL	NULL	NULL	NY	10591	United States	-73.85721	41.080196
10076	UMD-CMS	NULL	NULL	NULL	NULL	MD	20742	United States	-76.877743	38.833563
10077	Illinois High Energy Physics	University of Illinois High Energy Physics	The High Energy Physics at the University of Illinois is a member of ATLAS	1110 W Green St	NULL	IL	61801	United States	-88.21246	40.109647
10078	NSF	NULL	NULL	NULL	NULL	VA	22230	United States	-77.110817	38.87972
10079	NCSA	NULL	NULL	NULL	NULL	IL	61801	United States	-88.3	40.109647
10081	UMissHEP	NULL	This is the University of Mississippi's High Energy Physics computing facility.	NULL	NULL	MS	38677	United States	-89.53721	34.366302
10082	ClemsonCS	NULL	NULL	NULL	NULL	SC	29634	United States	-82.8	34.847372
10083	UColorado_HEP	NULL	NULL	NULL	NULL	CO	80309	United States	-105.27	40.015
10084	Harvard University		NULL	NULL	NULL			United States	-71.07	42.22
10086	RENCI		NULL	NULL	NULL	NC	27514	United States	-79.02	35.56
10087	NYSGRID RIT	NYSGRID RIT	NULL	NULL	NULL	ny	14623	United States	-77.677889	43.088072
10088	OSG GOC	NULL	NULL	NULL	NULL	Indiana	47403	United States	-86.549134	39.14424
10089	UCSB_MRL\t	NULL	NULL	NULL	NULL	CA	93106	United States	-119.702053	34.421355
10090	UTD-HEP	NULL	The University of Texas at Dallas Atlas Tier3gs (aka "mini-Tier2") GRID production site	NULL	NULL	Texas	75080	United States	-96.709986	32.734332
10091	DukeTier3	Duke University HEP Tier 3	Duke University HEP group Tier 3 site	Physics Building	Science Drive	North Carolina	27708	United States	-78.942304	36.003111
10092	UJ Research Cluster		See https://physics.uj.ac.za/cluster	Auckland Park	NULL	Gauteng	2006	South Africa	27.99	-26.18
10093	UCHC_CBG	University of Connecticut Health Center_CompBioGrid	A 29 node, 57 CPU Compute Element	University of Connecticut Health Center	263 Farmington Avenue	Connecticut	06030	United States	-72.791183	41.729962
10094	OSG-Rice	NULL	NULL	NULL	NULL	TX	77030	United States	-95.409334	29.716318
10095	NYSGRID-CUNY-GRID	The City University of New York		365 Fifth Avenue	NULL	NY	10016	United States	-73.984509	40.748362
10096	GRASE-GENESEO	GRASE-GENESEO	NULL	NULL	NULL	NY	14454	United States	-177.1875	61.270233
10097	NYSGRID_ALBANY	NULL	NULL	NULL	NULL	NY	12204	United States	-73.755877	42.651728
10098	LONI_LTU	Louisiana Optical Network Initiative	LONI resources located at Louisiana Tech University	NULL	NULL	LA	71272	United States	-92.648617	32.524553
10099	rutgers-cms	NULL	NULL	136 Frelinghuysen Road	NULL	New Jersey	08854-8019	USA	-74.464514	40.522918
10100	OSU-CMS	NULL	CMS Tier3 at The Ohio State University	191 W Woodruff Ave	NULL	OH	43210	USA	-83.014476	40.003407
10101	CAS-CNIC	Chinese Academy of Sciences (CAS) Computer Network Information Center	The Computer Network Information Center(CNIC) is a subsidiary research institute of the Chinese Academy of Sciences (CAS). CNIC is a support institution for sustainable construction, operation and service for informatization of Chinese Academy of Sciences, an operation management institution for basic resources of China's Internet, R&D base for advanced network and high-end application technology, and important component of the advanced S&T networks both at home and abroad. CNIC boasts seven service/research centers, including China Science and Technology Network Center (CSTNet), Scientific Data Center, Supercomputing Center, ARP (Academia Resource Planning) Operation Support Center, China Internet Network Information Center (CNNIC), Collaborative Environment Research Center (CERC) and Online Popular Science Education Center.	NULL	NULL	Haidian District	100190	China	116.308823	39.987511
10102	UC Davis CMS T3	University of California, Davis CMS Tier 3		One Shields Ave	NULL	CA	95616	United States	-121.751304	38.536669
10103	Nebraska-Omaha	NULL	The Holland Computing Center at the University of Nebraska-Omaha	1110 South 67th Street	NULL	NE	68182-0694	USA	-96.016817	41.247321
10104	Brown-CMS	NULL	CMS T3 Computing Center	Physics Department	Brown University, 182 Hope Street	Rhode Island	02912	USA	-71.422119	41.812267
10105	SMU_HPC	NULL	Southern Methodist University HPC	3215 Daniel Ave	NULL	TX	75205	USA	-96.783886	32.846297
10106	CIGI	CyberInfrastructure and Geospatial Information Laboratory	Administrative group for CIGI resources	NULL	NULL	Illinois	61801	US	-88.22603	40.107487
10107	KISTI-NSDC	NULL	Support CDF	NULL	NULL	Daejeon	305-806	South Korea	127.360725	36.363729
10108	LU HEP	NULL	NULL	NULL	NULL	OK	73050	USA	-97.260064	35.94565
10109	UConn-OSG	University of Connecticut	University of Connecticut at Storrs	2152 Hillside Road	NULL	CT	06269-3046	USA	-72.217941	41.777201
10110	uva-cms	University of Virginia - High Energy Physics - T3	NULL	NULL	NULL	Va	22033	USA	-78.520027	38.034546
10111	GridUNESP	NULL	NULL	Rua Dr Bento Teobaldo Ferraz, 271	Barra Funda	São Paulo	01140-070	Brazil	-46.665443	-23.524246
10112	Baylor University Tier3	Baylor University T3	Baylor University T3 CMS Cluster	1111 South University Parks Drive	NULL	TX	76706	USA	-97.118368	31.551111
10113	School of Physics and Astronomy	University of Minnesota School of Physics and Astronomy	NULL	Tate Lab of Physics	116 Church Street Se	Minnesota	55455	USA	-93.264999	44.988841
10114	Tufts	NULL	Shared Linux Cluster	169 Holland Street	Tufts University	MA	02155	USA	-71.11948	42.40546
10115	Tufts_ATLAS_Tier3	NULL	Shared Linux Cluster	169 Holland Street	Tufts University	MA	02155	USA	-71.11948	42.40546
10116	Princeton_ICSE	NULL	CMS Tier3 site	NULL	NULL	NJ	08544	USA	-74.653473	40.340526
10117	TAMU Academy	TAMU Academy for Advanced Telecommunications and Learning Technologies	NULL	NULL	NULL	Texas	77843-3139	USA	-96.342672	30.619803
10118	OSG Security Services	OSG Security Services	NULL	NULL	NULL	In	47404	USA	-86.539629	39.180061
10119	Bellarmine University	Bellarmine University	Bellarmine University ATLAS Tier3 Site	Department of Physics	Bellarmine University	Kentucky	40205	USA	-85.703713	38.219681
10120	Beocat	NULL	The Beocat compute cluster at Kansas State University	114 Nichols Hall	Kansas State University	KS	66506	US	-96.58088	39.186514
10121	Penn ATLAS Tier 3	NULL	NULL	NULL	NULL	PA	19104	USA	-75.171847	39.949424
10122	ANL ASC	Argonne National Lab Analysis Support Center	Argonne National Lab Analysis Support Center	Building 360	ANL	Illinois	60439	USA	-87.975157	41.705917
10123	Brandeis Tier 3	Brandeis Tier 3	Brandeis Tier 3	Brandeis Physics Dept MS 057	415 South St	Massachusetts	02454	USA	-71.242218	42.381372
10124	SBU Atlas Tier3	NULL	Stony Brook Atlas Tier3 Cluster	Physics Building, room D-132	Stony Brook University	New York	11794-3800	USA	-73.126116	40.916269
10125	Livermore Computing	NULL	Computing Center for LLNL	7000 East Avenue	NULL	CA	94550	US	-121.70445	37.68691
10126	UCIT3	ATLAS UC Irvine Tier-3	ATLAS UC Irvine Tier-3	University of California Irvine	NULL	CA	92697-4575	U.S.A	-117.840128	33.643474
10127	VT_OSG	NULL	NULL	NULL	NULL	Virginia	24061-0435	USA	-80.41342	37.203774
10128	Harvard University USATLAS Tier 3	NULL	Harvard University USATLAS Tier 3	18 Hammond Street	NULL	MA	02138	USA	-71.115714	42.380643
10129	Indiana University Physics	NULL	Indiana University Physics tier 3 cluster.	727 E 3rd St	Swain Hall West 117	Indiana	47405-7105	USA	-86.524579	39.16474
10130	UC Santa Cruz ATLAS Tier-3	NULL	NULL	University of California	1156 High St	CA	95064	USA	-122.061303	37.000779
10131	USCMS-FNAL-XEN	NULL	Single virtual xen node for Tier 3 support	NULL	NULL	IL	60510	US	-88.26188	41.838411
10132	Caltech HEP		This site is managed by the Caltech High Energy Physics department.	1200 E. California Blvd	NULL	CA	91125	USA	-118.124278	34.136133
10133	UPRM_HEP	NULL	NULL	NULL	NULL	PR	00680	Puerto Rico	-67.140884	18.211578
10134	OSGSC_UC	NULL	ITB site for Tier 3 and small sites prototyping and testing at the University of Chicago.	NULL	NULL	IL	60637	USA	-87.600936	41.790593
10135	Nebraska-CMS	NULL	Nebraska CMS T2	118 Schorr Center	NULL	NE	68588	USA	-96.705694	40.819655
10136	USP - LCCA	Universidade de São Paulo - Laboratório de Computação Científica Avançada	NULL	Av. Prof. Luciano Gualberto, 71, travessa 3	NULL	SP	05508-010	Brazil	-46.731999	-23.557103
10137	Nevis	NULL	NULL	NULL	NULL	NY	10533	USA	-73.872435	41.027292
10138	APCR-DRDL	AstroParticle and Cosmic Radiation Detector Research and Development Laboratory	NULL	1668 S Martin Luther King	NULL	Florida	32307	USA	-84.284816	30.428152
10139	TAMU Mathematics	Texas A&M University Department of Mathematics	NULL	Room 102 Milner Hall	NULL	TX	77843-3368	United States	-96.342888	30.616914
10140	ucsb-hep	NULL	NULL	NULL	NULL	CA	93106	USA	-119.179687	34.016242
10141	UGA Research Computing Center	NULL	NULL	NULL	NULL	NULL	30602	United States	-83.375362	33.945986
10142	SUSQU	Susquehanna University Physics Dept.	Susquehanna University Physics Dept.	514 University Ave	NULL	PA	17870	USA	-76.873155	40.798506
10143	GC_PUJ	NULL	Site Asociated to a GCVO and GCEDU	Carrera 7 No. 40 - 62	NULL	Bogota DC	075	Colombia	-74.063972	4.626875
10144	NYU ATLAS Tier3	NYU ATLAS Tier3	Tier3g cluster devoted to the analysis of the data collected by the ATLAS detector.	NULL	NULL	NY	10003	USA	-73.994486	40.729942
10145	PPCF_ATLAS	Hampton ATLAS Tier3	The Atlas Tier3 Cloud in Particle Physics Computing Facility at Hampton University.	Orchard Rd.	NULL	VA	23668	United States of America	-76.336344	37.019576
10146	FIU CMS Tier3	FIU CMS Tier3 meta cluster	CMS Tier3 site located at Florida International Univerisity	Department of Physics CP202	11200 SW 8th Street	Florida	33199	USA	-80.372361	25.758609
10147	Vanderbilt_EC2	Vanderbilt Cloud Interface	Test site for integrating EC2 into CMS' infrastructure	NULL	NULL	TN	37240	USA	-86.796455	36.143827
10148	HMS	Harvard Medical School	NULL	240 Longwood Ave	NULL	MA	02115	USA	-71.104092	42.335822
10149	CHTC	Center for High Throughput Computing	The University of Wisconsin's Center for High Throughput Computing.  Note that CHTC and GLOW are closely related, and in many contexts are synonyms.	1210 W. Dayton St	NULL	Wisconsin	53706-1685	USA	-89.406931	43.071568
10150	GC_UC	NULL	Site Asociated to a GCVO and GCEDU	Diagonal 47 #15-50	NULL	Bogota DC	075	Colombia	-74.068397	4.634815
10151	GC_UCALDAS	NULL	Site Asociated to a GCVO and GCEDU	Street 65 # 26-10	NULL	Caldas	0000	Colombia	-75.527846	5.071394
10152	GC_UTB	Unitecnologica	Site Asociated to a GCVO and GCEDU	Parque Industrial Carlos Velez Pombo	Ternera Km 1 via Turbaco	Bolivar	130010	Colombia	-75.465742	10.370536
10153	Uniandes	Universidad de los Andes	Universidad de los Andes site for EMI OSG. Site Asociated to a GCVO and GCEDU	Cr 1 #18a - 10	NULL	DC	11001	Colombia	-74.065747	4.60191
10154	GC_UPB	Universidad Pontificia Bolivariana	Site Asociated to a GCVO and GCEDU	Circular 1 70-01	NULL	Antioquia	NA	Colombia	-75.589344	6.240994
10155	UMass	University of Massachusetts, Amherst	University of Massachusetts, Amherst USATLAS Tier 3 cluster	1126 Lederle Graduate Research Tower (LGRT)	University of Massachusetts	MA	01003-9337	USA	-72.527661	42.394059
10156	GC_UDEM	NULL	Site Asociated to a GCVO and GCEDU	Carrera 87 No. 30-65	NULL	Antioquia	N/A	Colombia	-75.611327	6.232819
10157	GC_UAM	Site UAM	Site Asociated to a GCVO and GCEDU	Antigua Estacion del Ferrocarril	NULL	Caldas	0	Colombia	-75.502774	5.068271
10158	NIU ATLAS T3	NULL	NULL	Northern Illinois University	NULL	IL	60115	USA	-88.765218	41.932271
10159	CSU Fresno T3	CSU Fresno T3	California State University, Fresno, ATLAS T3g site	California State University, Fresno, Department of Physics	NULL	CA	93740-8027	USA	-119.746857	36.812927
10160	GC_UAC	NULL	Site Asociated to a GCVO and GCEDU	Cl 90 # 46 - 112	NULL	Atlantico	057	Colombia	-74.823788	11.00384
10161	GC_UV	Universidad del Valle	Site Asociated to a GCVO and GCEDU	Calle 13 # 100-00	Room 2072, building 331.	Valle del Cauca	na	Colombia	-76.532661	3.375296
10162	GC_UIS	NULL	Site Asociated to a GCVO and GCEDU	NULL	NULL	NULL	68001000	Colombia	-73.121446	7.140845
10163	GC_UNIANDES	NULL	Site Asociated to a GCVO and GCEDU	Carrera 1 #18A-10	NULL	Cundinamarca	340	Colombia	-74.065763	4.601878
10164	UCSD OSG	NULL	NULL	NULL	NULL	NULL	92093	USA	-117.246094	32.868053
10165	UAB Research Computing	NULL	NULL	1800 University Blvd	NULL	AL	35212	US	-86.801155	33.50305
10166	Virginia Bioinformatics Institute	NULL	NULL	Washington Street	NULL	VA	24061	USA	-80.426488	37.221196
10167	INFN-PADOVA	NULL	Grid site supporting SBGrid VO for interoperability tests between WeNMR/EGI and SBGrid/OSG. It hosts a glideinWMS submit node connected to the HMS SBGrid VO Frontend.	via Marzolo 8	NULL		35131	Italy	11.885952	45.409357
10168	UPittTier3	University of Pittsburgh ATLAS Tier3	NULL	NULL	NULL	PA	15260	USA	-79.958067	40.444885
10169	ODU_Mileva	mileva.hpc.odu.edu	A 16 node cluster dedicated for use of Hadoop experiments. \nAssociation SURAgrid-VO	4700 Elkhorn Avenue Suite 4300	NULL	VA	23529	USA	-116.867846	37.401394
10170	GOC Staff VM	NULL	Grouping of OSG GOC Staff VMs running various ITB Services: CE, SE, GUMS, etc	NULL	NULL	NULL	47408	USA	-86.500726	39.174239
10171	brown-cms-new	NULL	new T3 cluster	182 Hope St.	Physics Dept.	R.I.	02912	USA	-71.4133	41.8239
10172	PNNL_DC	PNNL Distributed Computing	NULL	NULL	NULL	WA	99354	USA	-119.307833	46.347283
10173	IU GOC GLIDEIN	NULL	NULL	NULL	NULL	IN	47408	USA	-86.497679	39.17379
10174	OSC	NULL	NULL	NULL	NULL	Ohio	43212	USA	-83.042908	39.999742
10175	PNNL_OSG2	NULL	NULL	NULL	NULL	NULL	99354	USA	-119.307833	46.347283
10176	ISI	NULL	NULL	4676 Admiralty Way, Suite 1001	NULL	CA	91321	USA	-95.677068	37.0625
10177	ILS	Information and Library Sciences	Information and Library Sciences	1320 E 10th Street	NULL	IN	47405	USA	-86.51753783226013	39.17099515330087
10178	MIT CMS T3	NULL	NULL	NULL	NULL	MA	02139	United States	-71.2	42.364347
10179	Georgia State University Research Computing	NULL	NULL	NULL	NULL	NULL	30303	USA	-116.867846	37.401394
10180	UMSNH	NULL	University of Morelia Michoacan	Avenida Francisco J. Mujica S/N	NULL	MICHOACAN	58030	MEXICO	-101.209067	19.687771
10181	UChicago	NULL	University of Chicago Campus Grid and ITB resources	5735 S Ellis ave	NULL	IL	60637	USA	-87.601384	41.791219
10182	Kennesaw State University	NULL	Kennesaw State University is a member of the Belle and Belle II collaborations	Kennesaw State University, Department of Biology and Physics	1000 Chastain Road	Georgia	30144-5591	USA	-84.581597	34.0226996
10183	NU Tier3	Northwestern University Tier3 CMS	Tier3 Facility for Northwestern University's High Energy Physics Group, analyzing data from the CMS collaboration at CERN.	2020 Ridge Ave	NULL	IL	60201	USA	-87.68809	42.05408
10184	LUCCRE	NULL	NULL	NULL	NULL	NULL	73050	USA	-97.259847	35.945191
10185	UMD-IGS	NULL	Institute for Genome Sciences	801 W. Baltimore St	NULL	MD	21201	USA	-76.619433	39.281834
10186	Discovery	Wisconsin Institutes for Discovery	Wisconsin Institutes for Discovery	330 North Orchard	NULL	WI	53711	USA	-89.408536	43.073005
10187	High Performance Computing Facility - University of Puerto Rico	High Performance Computing Facility - University of Puerto Rico	NULL	NULL	NULL	PR	00925	USA	-66.076093	18.427525
10188	WIPAC	Wisconsin IceCube Particle Astrophysics Center	The Wisconsin IceCube Particle Astrophysics Center houses multiple Particle Astrophysics projects with the IceCube Neutrino Observatory being the largest.	222 W. Washington Ave	Suite 500	WI	53703	USA	-89.388464	43.070725
10189	FZU	NULL	Regional Computing Center for Particle Physics (RCCPP) is the biggest site in the Czech Republic for simulations and data processing for particle physics experiments. It is located in the Institute of Physics of the Academy of Sciences of the Czech Republic.	Na Slovance 1999/2		NULL	182 21	Czech Republic	14.468787	50.123424
10190	NUMEP-OSG	NU MEP OSG	Northwestern University Medium Energy Physics Group	2020 Ridge Ave.	NULL	IL	60201	USA	-87.68809	42.05408
10191	T3_US_NEU	Northeastern University CMS Tier 3	Northeastern University CMS Tier 3	360 Huntington Ave		MA	02115	US	-71.08919	42.33787
10192	T3_KR_KISTI	T3_KR_KISTI	KISTI cms tier3	Gwahangno 335, Yuseong-gu,	NULL	NULL	305-806	Korea	127.366	36.366
10193	UW-IT	University of Washington Information Technology	NULL	4545 15th Ave NE	NULL	WA	98105	US	-122.303546	47.655316
10194	SU ITS	Syracuse University Information Techology Services	Syracuse University Information Technology Services Research Clusters	NULL	NULL	NY	13244	United States	-76.13268340000002	43.0385961
10195	WIX	Washington Information Exchange	PerfSONAR instance at Washington Information Exchange	NULL	NULL		20004	USA	-116.867846	37.401394
10196	MANLAN	Manhattan Landing	ESnet/Internet2 PoP in  New York	NULL	NULL	NY	10002	US	-116.867846	37.401394
10197	STAR	StarLight	The Starlight PoP in Chicago run by Northwestern/MREN	NULL	710 N Lakeshore Drive	IL	60611	US	-116.867846	37.401394
10198	GEANT-AMS	GEANT Netherlands PoP	NULL	NULL	NULL	NULL	1087	NL	4.93	52.34
10199	PuNDIT	NULL	PuNDIT Testbed	NULL	NULL	GA	30330	USA	-84.395951	33.776974
10200	SAMPA	GRupo de Íons PEsados Relativísticos - GRIPER	SAMPA site is T2 of WLHC	Rua do Matao, Travessa R 187	Cidade Universitaria	SP	05508-900	Brasil	-46.735994	-23.559086
10201	GridLAFEX	NULL	NULL	Rua Dr. Xavier Sigaud, 150 - Urca	NULL	Rio de Janeiro	22290-180	Brazil	-116.867846	37.401394
10202	LBL_ESnet	LBL ESnet	perfSONAR testbed instance at LBL.  NOTE: Not on LHCONE	1 Cyclotron Road Mail stop 50A-311	NULL	CA	94720	US	-116.867846	37.401394
10203	Georgia Tech		NULL	NULL	NULL		30332	United States	-84.3947	33.7758
10204	FIU HPC	FIU HPC Division of Information Technology	FIU Panther cluster sponsored by campus central IT division.	11200 SW 8th St	PC417	Florida	33174	United States	-80.376	25.758
10205	STAR-Online	NULL	A relatively small pool (initially 29 hosts).  It is only accessible from the BNL site, and is only for STAR jobs.	NULL	NULL	NY	11973	USA	-72.8767	40.879129
10206	JINR_Tier2	NULL	JINR-site for NOvA	NULL	NULL	NULL	141980	Russia	37.195622	56.7427
10207	Arizona Tier 3	NULL	University of Arizona Hep group Tier 3	NULL	NULL	Arizona	85719	United States	-110.953947	32.229874
10208	SUGWG	Syracuse University Gravitational Wave Group	NULL	NULL	NULL	NY	13244	United States	-116.867846	37.401394
10209	UNIBE-LHEP	NULL	NULL	Sidlerstrasse 5	NULL	NULL	3012	Switzerland	7.4385	46.9515
10210	CHPC	Center for Research and High Performance Computing	University of Utah's central Research Computing facility located in Salt Lake City, with multiple services including Virtual environments, HIPAA protected environments for Research, and classic X86 based HPC clusters - mainly with Infiniband interconnects.	155 South 1452 East Room 405	NULL	UT	84112	Unites States	-111.891	40.7608
10211	CILogon	NULL	NULL	NULL	NULL	Illinois	61801	USA	-88.2297206	40.1057858
10212	IIT - Illinois Institute of Technology	Illinois Institute of Technology	Illinois Institute of technology  HPC & HTC computing resources at Research Data Center	10 W. 35th Street, 8th Floor, 8E3-2	NULL	IL	60616	USA	-87.627	41.8349
10213	CCHDV	CancerComputer HotelDeVille	CancerComputer HotelDeVille datacentre installation	NULL	NULL	Quebec	J8X2E6	Canada	-75.715	45.427
10214	BUAP_CMS	NULL	BUAP_CMS provides computing services to the CMS Experiment.	NULL	Ciudad Universitaria, Col. San Manuel	Puebla	72570	Mexico	-98.20057	18.994923
10215	MIT_SUBMIT	NULL	MIT virtual center for job submission to on- and off-site resources.	77 Massachusetts Avenue	Building 24	MA	02139	USA	-71.092908	42.360593
10216	CENF	CENF Neutrino Platform	Cluster intended for use by Neutrino Platform experiments at CERN.	CERN	CH-1211 Geneva 23	NULL	CH-1211	Switzerland	6.054174	46.22932
10217	UC_HOSTED	NULL	Sites using hosted BOSCO instances at UChicago	5735 S Ellis ave	NULL	IL	60637	USA	-87.601384	41.791219
10218	FNAL HPC	Fermilab High Performance Computing	NULL	NULL	NULL	NULL	60510	United States	-88.242539	41.851376
10219	shenma high performance computing at IPP CAS	NULL	NULL	NULL	NULL	NULL	230031	China	-116.867846	37.401394
10220	JINR_Cloud	NULL	JINR site for NOvA	NULL	NULL	NULL	141980	Russia	37.195622	56.7427
10221	STANFORD_HOSTED	NULL	NULL	275 Panama St	NULL	CA	94305	USA	-122.177514	37.428596
10222	KANSAS_HOSTED	NULL	Entry for hosted CE submitting to Kansas University clusters	NULL	NULL	KS	66045	US	-95.275623	38.952526
10223	Oklahoma_Hosted_Site	NULL	Hosted BOSCO CE for the OSU Cowboy cluster	NULL	107 N MONROE STREET	OK	74078	US	-97.0723655	36.1230911
10224	JLAB	NULL	NULL	12000	NULL	Virginia	23606	USA	-76.48161	37.094401
10225	JetStream	NULL	NULL	NULL	NULL	NULL	47404	USA	-86.523608	39.14351
10226	Baylor University	Baylor University	Baylor University OSG Site	1111 South University Parks Drive	NULL	TX	76706	USA	-97.1143	31.5498
10227	OSG_US_GSU_ACORE	NULL	Hosted CE for the ACORE resource	NULL	NULL	GA	30302	US	-84.385318	33.752971
10228	OSG_US_DANFORTH_ce04	NULL	Hosted CE submitting to the Donald Danforth cluster	975 North Warson Road	NULL	Missouri	63132	US	-90.397189	38.674584
10229	OSG_US_WSU_GRID_ce2	NULL	Wayne State cluster accessed through hosted	42 W Warren Ave	NULL	MI	48202	US	-83.067147	42.356935
10230	OSG_US_USD_LEGACY	NULL	Hosted CE for Legacy cluster at University of South Dakota	414 E Clark St	NULL	SD	57069	US	-96.924136	42.788065
10231	OSG_US_ASU_OCTILLO	NULL	Entry for	651 E. University Dr., suite 138		Arizona	85281	US	-111.928031	33.424195
10232	FSU_HNPGRID	NULL	Hosted CE for GlueX and OSG support	600 W. College Avenue	NULL	FL	32306	US	-84.2985	30.441822
10233	Brookhaven Belle-II Tier1	NULL	NULL	NULL	NULL	NY	11973	USA	-72.878366	40.868386
10234	CCRnD	CancerComputer-Kitchener-Ardelt	A virtualized CE and WN cluster to take advantage of otherwise unused resources at CancerComputer's cluster in Kitchener	NULL	NULL	ON	N2C2M3	Canada	-80.4759616	43.4235682
10235	OSG_US_NDSU_CCAST_CLUSTER2	NULL	Entry for NDSU's Hosted CE	1340 Administration Ave	NULL	ND	58105	US	-96.802372	46.897592
10236	IUCAA Sarathi Cluster	NULL	Site for hosted CE submitting to the Sarathi Cluster at IUCAA	Post Bag 4 Ganeshkhind	NULL	NULL	411 007	India	73.825484	18.559302
